SKYKRAFT-1A             
1 55054U 23001AX  26068.71064616  .00008177  00000+0  30069-3 0  9991
2 55054  97.3349 127.6290 0011277 121.5092 238.7251 15.28083228176529
STARLINK-36553          
1 67506U 26012P   26068.08572399  .00035703  00000+0  13011-2 0  9995
2 67506  43.0032 317.4469 0001857 254.6779 105.3867 15.27569407  7679
